NORAD_CAT_ID,OBJECT_NAME,OBJECT_TYPE,EPOCH,MEAN_MOTION,ECCENTRICITY,INCLINATION,RA_OF_ASC_NODE,ARG_OF_PERICENTER,MEAN_ANOMALY,BSTAR,MEAN_MOTION_DOT,MEAN_MOTION_DDOT,TLE_LINE0,TLE_LINE1,TLE_LINE2,SEMIMAJOR_AXIS,PERIOD,APOGEE,PERIGEE,DECAYED
52305.0,STARLINK-3724,PAYLOAD,2023-03-09 03:02:42,15.08850145,0.0001412,53.2179,341.8852,74.2303,285.8845,0.00077611,0.00012089,0.0,0 STARLINK-3724,1 52305U 22041AW  23068.12687654  .00012089  00000-0  77611-3 0  9997,2 52305  53.2179 341.8852 0001412  74.2303 285.8845 15.08850145 50183,6917.849,95.437,540.691,538.738,0.0
52305.0,STARLINK-3724,PAYLOAD,2023-03-09 22:07:19,15.08853261,0.0001083,53.2163,338.3161,93.8397,266.2719,0.0011752,0.00018472,0.0,0 STARLINK-3724,1 52305U 22041AW  23068.92175212  .00018472  00000-0  11752-2 0  9992,2 52305  53.2163 338.3161 0001083  93.8397 266.2719 15.08853261 49086,6917.84,95.437,540.454,538.956,0.0
52305.0,STARLINK-3724,PAYLOAD,2023-03-10 10:50:23,15.08869036,0.0001089,53.216,335.9372,92.7196,267.3921,0.00086134,0.00013458,0.0,0 STARLINK-3724,1 52305U 22041AW  23069.45166039  .00013458  00000-0  86134-3 0  9994,2 52305  53.2160 335.9372 0001089  92.7196 267.3921 15.08869036 50380,6917.792,95.436,540.41,538.903,0.0
52305.0,STARLINK-3724,PAYLOAD,2023-03-10 17:11:56,15.08836612,0.000151,53.2159,334.7484,109.2117,250.9039,-0.00053783,-8.837e-05,0.0,0 STARLINK-3724,1 52305U 22041AW  23069.71662614 -.00008837  00000-0 -53783-3 0  9994,2 52305  53.2159 334.7484 0001510 109.2117 250.9039 15.08836612 50422,6917.891,95.438,540.8,538.711,0.0
52305.0,STARLINK-3724,PAYLOAD,2023-03-11 02:44:15,15.08844764,0.0001403,53.2152,332.9642,107.7069,252.4076,0.0023072,0.00036627,0.0,0 STARLINK-3724,1 52305U 22041AW  23070.11406804  .00036627  00000-0  23072-2 0  9990,2 52305  53.2152 332.9642 0001403 107.7069 252.4076 15.08844764 50482,6917.866,95.437,540.701,538.76,0.0
52305.0,STARLINK-3724,PAYLOAD,2023-03-12 04:10:27,15.08836284,0.0001107,53.2158,328.2041,108.7058,251.4055,0.0021273,0.00033727,0.0,0 STARLINK-3724,1 52305U 22041AW  23071.17393375  .00033727  00000-0  21273-2 0  9994,2 52305  53.2158 328.2041 0001107 108.7058 251.4055 15.08836284 50641,6917.892,95.438,540.523,538.991,0.0
52305.0,STARLINK-3724,PAYLOAD,2023-03-12 08:56:37,15.08838138,9.08e-05,53.2153,327.3144,86.0919,274.0177,0.0018542,0.00029343,0.0,0 STARLINK-3724,1 52305U 22041AW  23071.37265617  .00029343  00000-0  18542-2 0  9997,2 52305  53.2153 327.3144 0000908  86.0919 274.0177 15.08838138 49455,6917.886,95.438,540.379,539.123,0.0
52305.0,STARLINK-3724,PAYLOAD,2023-03-13 02:25:51,15.08861004,8.93e-05,53.215,324.0433,79.8686,280.2407,0.0011217,0.00017619,0.0,0 STARLINK-3724,1 52305U 22041AW  23072.10129069  .00017619  00000-0  11217-2 0  9994,2 52305  53.2150 324.0433 0000893  79.8686 280.2407 15.08861004 50782,6917.816,95.436,540.299,539.063,0.0
52305.0,STARLINK-3724,PAYLOAD,2023-03-13 21:30:29,15.08837022,8.38e-05,53.2152,320.475,94.364,265.7447,-9.5261e-05,-1.803e-05,0.0,0 STARLINK-3724,1 52305U 22041AW  23072.89617041 -.00001803  00000-0 -95261-4 0  9995,2 52305  53.2152 320.4750 0000838  94.3640 265.7447 15.08837022 49689,6917.889,95.438,540.334,539.175,0.0
52305.0,STARLINK-3724,PAYLOAD,2023-03-14 02:16:38,15.08835747,0.0001039,53.2157,319.5808,112.8842,247.2259,0.00014894,2.083e-05,0.0,0 STARLINK-3724,1 52305U 22041AW  23073.09489154  .00002083  00000-0  14894-3 0  9991,2 52305  53.2157 319.5808 0001039 112.8842 247.2259 15.08835747 50939,6917.893,95.438,540.477,539.04,0.0
52305.0,STARLINK-3724,PAYLOAD,2023-03-14 16:35:06,15.08850085,9.29e-05,53.2153,316.9043,110.2897,249.8195,0.00086606,0.00013526,0.0,0 STARLINK-3724,1 52305U 22041AW  23073.69105130  .00013526  00000-0  86606-3 0  9990,2 52305  53.2153 316.9043 0000929 110.2897 249.8195 15.08850085 49809,6917.85,95.437,540.357,539.072,0.0
52305.0,STARLINK-3724,PAYLOAD,2023-03-15 00:32:01,15.088773,0.0001323,53.2171,315.4185,89.9994,270.115,0.0014376,0.00022689,0.0,0 STARLINK-3724,1 52305U 22041AW  23074.02224453  .00022689  00000-0  14376-2 0  9992,2 52305  53.2171 315.4185 0001323  89.9994 270.1150 15.08877300 51078,6917.766,95.435,540.547,538.716,0.0
52305.0,STARLINK-3724,PAYLOAD,2023-03-15 21:12:02,15.088651,0.000126,53.2166,311.5511,122.453,237.6584,0.00086496,0.00013514,0.0,0 STARLINK-3724,1 52305U 22041AW  23074.88336126  .00013514  00000-0  86496-3 0  9997,2 52305  53.2166 311.5511 0001260 122.4530 237.6584 15.08865100 49982,6917.804,95.436,540.54,538.797,0.0
52305.0,STARLINK-3724,PAYLOAD,2023-03-16 00:22:48,15.08854318,9.63e-05,53.2155,310.9576,85.2354,274.8748,0.0011252,0.00017672,0.0,0 STARLINK-3724,1 52305U 22041AW  23075.01584405  .00017672  00000-0  11252-2 0  9994,2 52305  53.2155 310.9576 0000963  85.2354 274.8748 15.08854318 51227,6917.837,95.437,540.368,539.035,0.0
52305.0,STARLINK-3724,PAYLOAD,2023-03-16 06:44:21,15.08850766,9.82e-05,53.2155,309.7673,81.6161,278.4942,0.00071948,0.00011185,0.0,0 STARLINK-3724,1 52305U 22041AW  23075.28080265  .00011185  00000-0  71948-3 0  9990,2 52305  53.2155 309.7673 0000982  81.6161 278.4942 15.08850766 51261,6917.847,95.437,540.392,539.033,0.0
52305.0,STARLINK-3724,PAYLOAD,2023-03-16 22:38:13,15.08825243,9.42e-05,53.2155,306.7946,78.5066,281.6032,0.00086624,0.0001352,0.0,0 STARLINK-3724,1 52305U 22041AW  23075.94321218  .00013520  00000-0  86624-3 0  9991,2 52305  53.2155 306.7946 0000942  78.5066 281.6032 15.08825243 51365,6917.925,95.438,540.442,539.139,0.0
52305.0,STARLINK-3724,PAYLOAD,2023-03-17 08:10:32,15.08840531,0.0001036,53.2153,305.0089,77.9797,282.1312,0.00065094,0.00010087,0.0,0 STARLINK-3724,1 52305U 22041AW  23076.34065138  .00010087  00000-0  65094-3 0  9995,2 52305  53.2153 305.0089 0001036  77.9797 282.1312 15.08840531 50208,6917.879,95.438,540.46,539.027,0.0
52305.0,STARLINK-3724,PAYLOAD,2023-03-17 20:53:37,15.08848027,0.0001079,53.2146,302.6304,76.0617,284.0495,0.0006301,9.757e-05,0.0,0 STARLINK-3724,1 52305U 22041AW  23076.87057078  .00009757  00000-0  63010-3 0  9995,2 52305  53.2146 302.6304 0001079  76.0617 284.0495 15.08848027 50280,6917.856,95.437,540.467,538.974,0.0
52305.0,STARLINK-3724,PAYLOAD,2023-03-18 00:04:23,15.08851215,0.0001087,53.215,302.0356,76.7665,283.3449,0.00064854,0.00010052,0.0,0 STARLINK-3724,1 52305U 22041AW  23077.00304962  .00010052  00000-0  64854-3 0  9995,2 52305  53.2150 302.0356 0001087  76.7665 283.3449 15.08851215 51527,6917.846,95.437,540.463,538.959,0.0
52305.0,STARLINK-3724,PAYLOAD,2023-03-18 14:22:51,15.08844878,0.0001131,53.2135,299.3614,80.1596,279.9524,0.00019327,2.79e-05,0.0,0 STARLINK-3724,1 52305U 22041AW  23077.59920928  .00002790  00000-0  19327-3 0  9990,2 52305  53.2135 299.3614 0001131  80.1596 279.9524 15.08844878 51619,6917.865,95.437,540.513,538.948,0.0
52305.0,STARLINK-3724,PAYLOAD,2023-03-18 22:19:47,15.08848889,0.0001251,53.2144,297.8737,78.9616,281.1517,0.00020338,2.951e-05,0.0,0 STARLINK-3724,1 52305U 22041AW  23077.93040745  .00002951  00000-0  20338-3 0  9991,2 52305  53.2144 297.8737 0001251  78.9616 281.1517 15.08848889 50442,6917.853,95.437,540.584,538.853,0.0
52305.0,STARLINK-3724,PAYLOAD,2023-03-19 14:13:38,15.08845675,0.0001236,53.2138,294.8987,88.4777,271.6357,0.00014215,1.976e-05,0.0,0 STARLINK-3724,1 52305U 22041AW  23078.59280735  .00001976  00000-0  14215-3 0  9992,2 52305  53.2138 294.8987 0001236  88.4777 271.6357 15.08845675 50543,6917.863,95.437,540.583,538.873,0.0
52305.0,STARLINK-3724,PAYLOAD,2023-03-19 20:35:10,15.08847317,0.0001206,53.2143,293.7106,84.883,275.2299,9.6099e-05,1.242e-05,0.0,0 STARLINK-3724,1 52305U 22041AW  23078.85776588  .00001242  00000-0  96099-4 0  9994,2 52305  53.2143 293.7106 0001206  84.8830 275.2299 15.08847317 51807,6917.858,95.437,540.557,538.889,0.0
52305.0,STARLINK-3724,PAYLOAD,2023-03-20 07:42:53,15.08840724,0.0001742,53.2144,291.6295,77.5572,282.5614,4.892e-05,4.91e-06,0.0,0 STARLINK-3724,1 52305U 22041AW  23079.32144975  .00000491  00000-0  48920-4 0  9991,2 52305  53.2144 291.6295 0001742  77.5572 282.5614 15.08840724 51875,6917.878,95.438,540.948,538.538,0.0
52305.0,STARLINK-3724,PAYLOAD,2023-03-20 20:25:58,15.08844688,0.0001422,53.2138,289.2497,78.0199,282.0952,0.00014282,1.986e-05,0.0,0 STARLINK-3724,1 52305U 22041AW  23079.85136684  .00001986  00000-0  14282-3 0  9990,2 52305  53.2138 289.2497 0001422  78.0199 282.0952 15.08844688 50738,6917.866,95.437,540.715,538.747,0.0
52305.0,STARLINK-3724,PAYLOAD,2023-03-20 23:36:44,15.08847313,0.0001336,53.2148,288.6541,82.4916,277.6228,0.00017206,2.452e-05,0.0,0 STARLINK-3724,1 52305U 22041AW  23079.98384538  .00002452  00000-0  17206-3 0  9995,2 52305  53.2148 288.6541 0001336  82.4916 277.6228 15.08847313 50758,6917.858,95.437,540.647,538.799,0.0
52305.0,STARLINK-3724,PAYLOAD,2023-03-21 20:16:45,15.08844306,0.0001338,53.2156,284.7868,86.4369,273.6776,0.00012526,1.706e-05,0.0,0 STARLINK-3724,1 52305U 22041AW  23080.84496622  .00001706  00000-0  12526-3 0  9991,2 52305  53.2156 284.7868 0001338  86.4369 273.6776 15.08844306 52108,6917.867,95.437,540.658,538.807,0.0
52305.0,STARLINK-3724,PAYLOAD,2023-03-22 20:07:32,15.08843883,0.000108,53.2153,280.3261,74.5677,285.5434,8.2302e-05,1.022e-05,0.0,0 STARLINK-3724,1 52305U 22041AW  23081.83856540  .00001022  00000-0  82302-4 0  9991,2 52305  53.2153 280.3261 0001080  74.5677 285.5434 15.08843883 51031,6917.869,95.437,540.481,538.986,0.0
52305.0,STARLINK-3724,PAYLOAD,2023-03-22 23:18:18,15.08844467,0.0001084,53.2153,279.7313,74.306,285.8051,8.699e-05,1.097e-05,0.0,0 STARLINK-3724,1 52305U 22041AW  23081.97104481  .00001097  00000-0  86990-4 0  9995,2 52305  53.2153 279.7313 0001084  74.3060 285.8051 15.08844467 52273,6917.867,95.437,540.482,538.982,0.0
52305.0,STARLINK-3724,PAYLOAD,2023-03-23 05:39:50,15.0884164,0.0001026,53.2148,278.5417,73.8485,286.262,4.4062e-05,4.14e-06,0.0,0 STARLINK-3724,1 52305U 22041AW  23082.23600588  .00000414  00000-0  44062-4 0  9990,2 52305  53.2148 278.5417 0001026  73.8485 286.2620 15.08841640 51096,6917.875,95.437,540.45,539.031,0.0
